{
"type": "FeatureCollection",
"name": "processed_buildings",
"crs": { "type": "name", "properties": { "name": "urn:ogc:def:crs:OGC:1.3:CRS84" } },
"features": [
{ "type": "Feature", "properties": { "id": 1, "name": "Meenakshi Complex", "building_type": "Commercial", "floors": 4, "area_sqm": 4373.99, "area_sqkm": 0.0044 }, "geometry": { "type": "Polygon", "coordinates": [ [ [ 78.118, 9.925 ], [ 78.1186, 9.925 ], [ 78.1186, 9.9256 ], [ 78.118, 9.9256 ], [ 78.118, 9.925 ] ] ] } },
{ "type": "Feature", "properties": { "id": 2, "name": "Vandiyur Residency", "building_type": "Residential", "floors": 2, "area_sqm": 4374.09, "area_sqkm": 0.0044 }, "geometry": { "type": "Polygon", "coordinates": [ [ [ 78.13, 9.91 ], [ 78.1306, 9.91 ], [ 78.1306, 9.9106 ], [ 78.13, 9.9106 ], [ 78.13, 9.91 ] ] ] } },
{ "type": "Feature", "properties": { "id": 3, "name": "Anna Nagar School", "building_type": "Institutional", "floors": 3, "area_sqm": 7775.91, "area_sqkm": 0.0078 }, "geometry": { "type": "Polygon", "coordinates": [ [ [ 78.105, 9.935 ], [ 78.1058, 9.935 ], [ 78.1058, 9.9358 ], [ 78.105, 9.9358 ], [ 78.105, 9.935 ] ] ] } },
{ "type": "Feature", "properties": { "id": 4, "name": "K.K. Nagar Apartments", "building_type": "Residential", "floors": 6, "area_sqm": 5953.77, "area_sqkm": 0.006 }, "geometry": { "type": "Polygon", "coordinates": [ [ [ 78.098, 9.92 ], [ 78.0987, 9.92 ], [ 78.0987, 9.9207 ], [ 78.098, 9.9207 ], [ 78.098, 9.92 ] ] ] } },
{ "type": "Feature", "properties": { "id": 5, "name": "Simmakkal Trade Center", "building_type": "Commercial", "floors": 5, "area_sqm": 5953.39, "area_sqkm": 0.006 }, "geometry": { "type": "Polygon", "coordinates": [ [ [ 78.121, 9.928 ], [ 78.1217, 9.928 ], [ 78.1217, 9.9287 ], [ 78.121, 9.9287 ], [ 78.121, 9.928 ] ] ] } },
{ "type": "Feature", "properties": { "id": 6, "name": "Government Hospital Block", "building_type": "Institutional", "floors": 4, "area_sqm": 7776.17, "area_sqkm": 0.0078 }, "geometry": { "type": "Polygon", "coordinates": [ [ [ 78.115, 9.918 ], [ 78.1158, 9.918 ], [ 78.1158, 9.9188 ], [ 78.115, 9.9188 ], [ 78.115, 9.918 ] ] ] } },
{ "type": "Feature", "properties": { "id": 7, "name": "Villapuram Homes", "building_type": "Residential", "floors": 2, "area_sqm": 4374.08, "area_sqkm": 0.0044 }, "geometry": { "type": "Polygon", "coordinates": [ [ [ 78.14, 9.905 ], [ 78.1406, 9.905 ], [ 78.1406, 9.9056 ], [ 78.14, 9.9056 ], [ 78.14, 9.905 ] ] ] } },
{ "type": "Feature", "properties": { "id": 8, "name": "Tallakulam Mall", "building_type": "Commercial", "floors": 3, "area_sqm": 7775.76, "area_sqkm": 0.0078 }, "geometry": { "type": "Polygon", "coordinates": [ [ [ 78.108, 9.94 ], [ 78.1088, 9.94 ], [ 78.1088, 9.9408 ], [ 78.108, 9.9408 ], [ 78.108, 9.94 ] ] ] } },
{ "type": "Feature", "properties": { "id": 9, "name": "Arasaradi College Block", "building_type": "Institutional", "floors": 3, "area_sqm": 7776.23, "area_sqkm": 0.0078 }, "geometry": { "type": "Polygon", "coordinates": [ [ [ 78.09, 9.93 ], [ 78.0908, 9.93 ], [ 78.0908, 9.9308 ], [ 78.09, 9.9308 ], [ 78.09, 9.93 ] ] ] } },
{ "type": "Feature", "properties": { "id": 10, "name": "Goripalayam Residency", "building_type": "Residential", "floors": 3, "area_sqm": 4373.84, "area_sqkm": 0.0044 }, "geometry": { "type": "Polygon", "coordinates": [ [ [ 78.123, 9.933 ], [ 78.1236, 9.933 ], [ 78.1236, 9.9336 ], [ 78.123, 9.9336 ], [ 78.123, 9.933 ] ] ] } },
{ "type": "Feature", "properties": { "id": 11, "name": "Mattuthavani Warehouse", "building_type": "Commercial", "floors": 1, "area_sqm": 12148.66, "area_sqkm": 0.0121 }, "geometry": { "type": "Polygon", "coordinates": [ [ [ 78.145, 9.945 ], [ 78.146, 9.945 ], [ 78.146, 9.946 ], [ 78.145, 9.946 ], [ 78.145, 9.945 ] ] ] } },
{ "type": "Feature", "properties": { "id": 12, "name": "Thiagarajar Institute Block", "building_type": "Institutional", "floors": 4, "area_sqm": 7775.81, "area_sqkm": 0.0078 }, "geometry": { "type": "Polygon", "coordinates": [ [ [ 78.095, 9.945 ], [ 78.0958, 9.945 ], [ 78.0958, 9.9458 ], [ 78.095, 9.9458 ], [ 78.095, 9.945 ] ] ] } }
]
}
